{
  "type": "FeatureCollection",
  "features": [
    {
      "type": "Feature",
      "properties": {
        "norad_id": 39160,
        "name": "VNREDSAT 1",
        "group": "resource",
        "lat": 22.22704428206952,
        "lon": 33.363072780995495,
        "alt_km": 676.6034699149259,
        "timestamp": "2025-12-07T03:52:32.126974+00:00",
        "meta_object_name": "VNREDSAT 1",
        "meta_object_id": "2013-021B",
        "meta_epoch": "2025-12-06T14:39:32.169600",
        "meta_mean_motion": 14.64909075,
        "meta_eccentricity": 0.00013276,
        "meta_inclination": 97.9382,
        "meta_ra_of_asc_node": 36.1004,
        "meta_arg_of_pericenter": 83.2785,
        "meta_mean_anomaly": 276.857,
        "meta_ephemeris_type": 0,
        "meta_classification_type": "U",
        "meta_norad_cat_id": 39160,
        "meta_element_set_no": 999,
        "meta_rev_at_epoch": 67209,
        "meta_bstar": 0.0002674067,
        "meta_mean_motion_dot": 1.384e-05,
        "meta_mean_motion_ddot": 0,
        "tle_line1": "1 39160U 13021B   25340.61078900  .00001384  00000+0  26741-3 0  9999",
        "tle_line2": "2 39160  97.9382  36.1004 0001327  83.2785 276.8570 14.64909075672093"
      },
      "geometry": {
        "type": "Point",
        "coordinates": [
          33.363072780995495,
          22.22704428206952
        ]
      }
    },
    {
      "type": "Feature",
      "properties": {
        "norad_id": 39227,
        "name": "ARIRANG-5 (KOMPSAT-5)",
        "group": "resource",
        "lat": 26.87515869096778,
        "lon": 161.6575687178693,
        "alt_km": 550.055223057122,
        "timestamp": "2025-12-07T03:52:32.126985+00:00",
        "meta_object_name": "ARIRANG-5 (KOMPSAT-5)",
        "meta_object_id": "2013-042A",
        "meta_epoch": "2025-12-06T14:59:09.208896",
        "meta_mean_motion": 15.04521641,
        "meta_eccentricity": 0.00039769,
        "meta_inclination": 97.6151,
        "meta_ra_of_asc_node": 165.0161,
        "meta_arg_of_pericenter": 74.2592,
        "meta_mean_anomaly": 285.9073,
        "meta_ephemeris_type": 0,
        "meta_classification_type": "U",
        "meta_norad_cat_id": 39227,
        "meta_element_set_no": 999,
        "meta_rev_at_epoch": 67490,
        "meta_bstar": 0.0002064538,
        "meta_mean_motion_dot": 2.832e-05,
        "meta_mean_motion_ddot": 0,
        "tle_line1": "1 39227U 13042A   25340.62441214  .00002832  00000+0  20645-3 0  9995",
        "tle_line2": "2 39227  97.6151 165.0161 0003976  74.2592 285.9073 15.04521641674907"
      },
      "geometry": {
        "type": "Point",
        "coordinates": [
          161.6575687178693,
          26.87515869096778
        ]
      }
    },
    {
      "type": "Feature",
      "properties": {
        "norad_id": 39418,
        "name": "SKYSAT-A",
        "group": "resource",
        "lat": -76.55301318663084,
        "lon": 178.55661328559685,
        "alt_km": 524.6563758242337,
        "timestamp": "2025-12-07T03:52:32.126997+00:00",
        "meta_object_name": "SKYSAT-A",
        "meta_object_id": "2013-066C",
        "meta_epoch": "2025-12-06T15:36:42.297984",
        "meta_mean_motion": 15.11535513,
        "meta_eccentricity": 0.0020539,
        "meta_inclination": 97.4111,
        "meta_ra_of_asc_node": 31.0443,
        "meta_arg_of_pericenter": 259.079,
        "meta_mean_anomaly": 100.8129,
        "meta_ephemeris_type": 0,
        "meta_classification_type": "U",
        "meta_norad_cat_id": 39418,
        "meta_element_set_no": 999,
        "meta_rev_at_epoch": 65938,
        "meta_bstar": 0.00034849063,
        "meta_mean_motion_dot": 5.873e-05,
        "meta_mean_motion_ddot": 0,
        "tle_line1": "1 39418U 13066C   25340.65048956  .00005873  00000+0  34849-3 0  9991",
        "tle_line2": "2 39418  97.4111  31.0443 0020539 259.0790 100.8129 15.11535513659388"
      },
      "geometry": {
        "type": "Point",
        "coordinates": [
          178.55661328559685,
          -76.55301318663084
        ]
      }
    },
    {
      "type": "Feature",
      "properties": {
        "norad_id": 39419,
        "name": "DUBAISAT-2",
        "group": "resource",
        "lat": 72.22016437172242,
        "lon": 175.80276023063468,
        "alt_km": 538.9157345744907,
        "timestamp": "2025-12-07T03:52:32.127008+00:00",
        "meta_object_name": "DUBAISAT-2",
        "meta_object_id": "2013-066D",
        "meta_epoch": "2025-12-06T14:40:08.524128",
        "meta_mean_motion": 15.08264451,
        "meta_eccentricity": 0.00111329,
        "meta_inclination": 97.4439,
        "meta_ra_of_asc_node": 331.2078,
        "meta_arg_of_pericenter": 343.4327,
        "meta_mean_anomaly": 16.6536,
        "meta_ephemeris_type": 0,
        "meta_classification_type": "U",
        "meta_norad_cat_id": 39419,
        "meta_element_set_no": 999,
        "meta_rev_at_epoch": 65734,
        "meta_bstar": 0.00051981421,
        "meta_mean_motion_dot": 8.008e-05,
        "meta_mean_motion_ddot": 0,
        "tle_line1": "1 39419U 13066D   25340.61120977  .00008008  00000+0  51981-3 0  9991",
        "tle_line2": "2 39419  97.4439 331.2078 0011132 343.4327  16.6536 15.08264451657340"
      },
      "geometry": {
        "type": "Point",
        "coordinates": [
          175.80276023063468,
          72.22016437172242
        ]
      }
    },
    {
      "type": "Feature",
      "properties": {
        "norad_id": 39574,
        "name": "GPM-CORE",
        "group": "resource",
        "lat": -24.53000607711061,
        "lon": 63.68425674723334,
        "alt_km": 431.5475418756396,
        "timestamp": "2025-12-07T03:52:32.127019+00:00",
        "meta_object_name": "GPM-CORE",
        "meta_object_id": "2014-009C",
        "meta_epoch": "2025-12-06T16:06:32.955264",
        "meta_mean_motion": 15.45338585,
        "meta_eccentricity": 0.00105397,
        "meta_inclination": 64.9744,
        "meta_ra_of_asc_node": 233.017,
        "meta_arg_of_pericenter": 269.2106,
        "meta_mean_anomaly": 90.7828,
        "meta_ephemeris_type": 0,
        "meta_classification_type": "U",
        "meta_norad_cat_id": 39574,
        "meta_element_set_no": 999,
        "meta_rev_at_epoch": 66807,
        "meta_bstar": 0.00047078342,
        "meta_mean_motion_dot": 0.00022445,
        "meta_mean_motion_ddot": 0,
        "tle_line1": "1 39574U 14009C   25340.67121476  .00022445  00000+0  47078-3 0  9995",
        "tle_line2": "2 39574  64.9744 233.0170 0010539 269.2106  90.7828 15.45338585668072"
      },
      "geometry": {
        "type": "Point",
        "coordinates": [
          63.68425674723334,
          -24.53000607711061
        ]
      }
    },
    {
      "type": "Feature",
      "properties": {
        "norad_id": 39634,
        "name": "SENTINEL-1A",
        "group": "resource",
        "lat": -2.0261365911015994,
        "lon": -13.223240783270649,
        "alt_km": 699.0001461481088,
        "timestamp": "2025-12-07T03:52:32.127030+00:00",
        "meta_object_name": "SENTINEL-1A",
        "meta_object_id": "2014-016A",
        "meta_epoch": "2025-12-06T14:43:09.235776",
        "meta_mean_motion": 14.59198572,
        "meta_eccentricity": 0.0001257,
        "meta_inclination": 98.1803,
        "meta_ra_of_asc_node": 345.9451,
        "meta_arg_of_pericenter": 89.3693,
        "meta_mean_anomaly": 270.765,
        "meta_ephemeris_type": 0,
        "meta_classification_type": "U",
        "meta_norad_cat_id": 39634,
        "meta_element_set_no": 999,
        "meta_rev_at_epoch": 62193,
        "meta_bstar": 9.2247808e-05,
        "meta_mean_motion_dot": 3.89e-06,
        "meta_mean_motion_ddot": 0,
        "tle_line1": "1 39634U 14016A   25340.61330134  .00000389  00000+0  92248-4 0  9990",
        "tle_line2": "2 39634  98.1803 345.9451 0001257  89.3693 270.7650 14.59198572621939"
      },
      "geometry": {
        "type": "Point",
        "coordinates": [
          -13.223240783270649,
          -2.0261365911015994
        ]
      }
    },
    {
      "type": "Feature",
      "properties": {
        "norad_id": 39731,
        "name": "KAZEOSAT 1",
        "group": "resource",
        "lat": -43.26904471236541,
        "lon": 61.13526870643181,
        "alt_km": 758.945667667007,
        "timestamp": "2025-12-07T03:52:32.127040+00:00",
        "meta_object_name": "KAZEOSAT 1",
        "meta_object_id": "2014-024A",
        "meta_epoch": "2025-12-06T14:45:23.476320",
        "meta_mean_motion": 14.42057323,
        "meta_eccentricity": 0.00010737,
        "meta_inclination": 98.3443,
        "meta_ra_of_asc_node": 52.6596,
        "meta_arg_of_pericenter": 99.6966,
        "meta_mean_anomaly": 260.4345,
        "meta_ephemeris_type": 0,
        "meta_classification_type": "U",
        "meta_norad_cat_id": 39731,
        "meta_element_set_no": 999,
        "meta_rev_at_epoch": 61080,
        "meta_bstar": 0.00016862178,
        "meta_mean_motion_dot": 5.11e-06,
        "meta_mean_motion_ddot": 0,
        "tle_line1": "1 39731U 14024A   25340.61485505  .00000511  00000+0  16862-3 0  9994",
        "tle_line2": "2 39731  98.3443  52.6596 0001073  99.6966 260.4345 14.42057323610805"
      },
      "geometry": {
        "type": "Point",
        "coordinates": [
          61.13526870643181,
          -43.26904471236541
        ]
      }
    }
  ]
}